{"type": "FeatureCollection", "features": [ {"type": "Feature", "properties": {"norad_id": 32384, "name": "GPS BIIRM-5 (PRN 29)", "group": "gps-ops", "lat": 53.54197326630051, "lon": -7.995104368456654, "alt_km": 20165.962530237794, "timestamp": "2025-12-06T16:45:42.980986+00:00", "meta": {"OBJECT_NAME": "GPS BIIRM-5 (PRN 29)", "OBJECT_ID": "2007-062A", "EPOCH": "2025-12-06T07:55:36.402816", "MEAN_MOTION": 2.00576852, "ECCENTRICITY": 0.00322142, "INCLINATION": 55.1879, "RA_OF_ASC_NODE": 281.903, "ARG_OF_PERICENTER": 162.6829, "MEAN_ANOMALY": 10.1914, "EPHEMERIS_TYPE": 0, "CLASSIFICATION_TYPE": "U", "NORAD_CAT_ID": 32384, "ELEMENT_SET_NO": 999, "REV_AT_EPOCH": 13164, "BSTAR": 0, "MEAN_MOTION_DOT": -3.7e-07, "MEAN_MOTION_DDOT": 0}, "tle": {"line1": "1 32384U 07062A   25340.33028244 -.00000037  00000+0  00000+0 0  9994", "line2": "2 32384  55.1879 281.9030 0032214 162.6829  10.1914  2.00576852131642"}}, "geometry": {"type": "Point", "coordinates": [-7.995104368456654, 53.54197326630051]}}, {"type": "Feature", "properties": {"norad_id": 32711, "name": "GPS BIIRM-6 (PRN 07)", "group": "gps-ops", "lat": 4.308684404057583, "lon": 160.69401775844284, "alt_km": 20445.357728651124, "timestamp": "2025-12-06T16:45:42.980997+00:00", "meta": {"OBJECT_NAME": "GPS BIIRM-6 (PRN 07)", "OBJECT_ID": "2008-012A", "EPOCH": "2025-12-05T16:39:04.632768", "MEAN_MOTION": 2.00565224, "ECCENTRICITY": 0.02021668, "INCLINATION": 54.476, "RA_OF_ASC_NODE": 157.6542, "ARG_OF_PERICENTER": 244.8708, "MEAN_ANOMALY": 113.0379, "EPHEMERIS_TYPE": 0, "CLASSIFICATION_TYPE": "U", "NORAD_CAT_ID": 32711, "ELEMENT_SET_NO": 999, "REV_AT_EPOCH": 12987, "BSTAR": 0, "MEAN_MOTION_DOT": 7e-07, "MEAN_MOTION_DDOT": 0}, "tle": {"line1": "1 32711U 08012A   25339.69380362  .00000070  00000+0  00000+0 0  9999", "line2": "2 32711  54.4760 157.6542 0202166 244.8708 113.0379  2.00565224129879"}}, "geometry": {"type": "Point", "coordinates": [160.69401775844284, 4.308684404057583]}}, {"type": "Feature", "properties": {"norad_id": 35752, "name": "GPS BIIRM-8 (PRN 05)", "group": "gps-ops", "lat": 18.727194778091626, "lon": 48.212605773142734, "alt_km": 20108.413511370785, "timestamp": "2025-12-06T16:45:42.981009+00:00", "meta": {"OBJECT_NAME": "GPS BIIRM-8 (PRN 05)", "OBJECT_ID": "2009-043A", "EPOCH": "2025-12-06T04:15:17.726400", "MEAN_MOTION": 2.00565936, "ECCENTRICITY": 0.00519837, "INCLINATION": 56.0865, "RA_OF_ASC_NODE": 35.042, "ARG_OF_PERICENTER": 82.0207, "MEAN_ANOMALY": 285.0233, "EPHEMERIS_TYPE": 0, "CLASSIFICATION_TYPE": "U", "NORAD_CAT_ID": 35752, "ELEMENT_SET_NO": 999, "REV_AT_EPOCH": 11949, "BSTAR": 0, "MEAN_MOTION_DOT": -7.1e-07, "MEAN_MOTION_DDOT": 0}, "tle": {"line1": "1 35752U 09043A   25340.17728850 -.00000071  00000+0  00000+0 0  9997", "line2": "2 35752  56.0865  35.0420 0051983  82.0207 285.0233  2.00565936119496"}}, "geometry": {"type": "Point", "coordinates": [48.212605773142734, 18.727194778091626]}}, {"type": "Feature", "properties": {"norad_id": 36585, "name": "GPS BIIF-1  (PRN 25)", "group": "gps-ops", "lat": 29.02840886594606, "lon": 12.827466583089292, "alt_km": 20107.863146192416, "timestamp": "2025-12-06T16:45:42.981020+00:00", "meta": {"OBJECT_NAME": "GPS BIIF-1  (PRN 25)", "OBJECT_ID": "2010-022A", "EPOCH": "2025-12-06T05:55:19.682976", "MEAN_MOTION": 2.00552783, "ECCENTRICITY": 0.01258443, "INCLINATION": 54.3013, "RA_OF_ASC_NODE": 216.3359, "ARG_OF_PERICENTER": 65.0038, "MEAN_ANOMALY": 110.8352, "EPHEMERIS_TYPE": 0, "CLASSIFICATION_TYPE": "U", "NORAD_CAT_ID": 36585, "ELEMENT_SET_NO": 999, "REV_AT_EPOCH": 11372, "BSTAR": 0, "MEAN_MOTION_DOT": 5.1e-07, "MEAN_MOTION_DDOT": 0}, "tle": {"line1": "1 36585U 10022A   25340.24675559  .00000051  00000+0  00000+0 0  9993", "line2": "2 36585  54.3013 216.3359 0125844  65.0038 110.8352  2.00552783113726"}}, "geometry": {"type": "Point", "coordinates": [12.827466583089292, 29.02840886594606]}}, {"type": "Feature", "properties": {"norad_id": 38833, "name": "GPS BIIF-3  (PRN 24)", "group": "gps-ops", "lat": -43.7634889453811, "lon": 16.548858749953325, "alt_km": 20651.90088065887, "timestamp": "2025-12-06T16:45:42.981032+00:00", "meta": {"OBJECT_NAME": "GPS BIIF-3  (PRN 24)", "OBJECT_ID": "2012-053A", "EPOCH": "2025-12-05T20:54:28.108224", "MEAN_MOTION": 2.00564871, "ECCENTRICITY": 0.01756137, "INCLINATION": 53.5564, "RA_OF_ASC_NODE": 151.5199, "ARG_OF_PERICENTER": 63.8922, "MEAN_ANOMALY": 297.9105, "EPHEMERIS_TYPE": 0, "CLASSIFICATION_TYPE": "U", "NORAD_CAT_ID": 38833, "ELEMENT_SET_NO": 999, "REV_AT_EPOCH": 9556, "BSTAR": 0, "MEAN_MOTION_DOT": 6.1e-07, "MEAN_MOTION_DDOT": 0}, "tle": {"line1": "1 38833U 12053A   25339.87115866  .00000061  00000+0  00000+0 0  9995", "line2": "2 38833  53.5564 151.5199 0175613  63.8922 297.9105  2.00564871 95560"}}, "geometry": {"type": "Point", "coordinates": [16.548858749953325, -43.7634889453811]}}, {"type": "Feature", "properties": {"norad_id": 39166, "name": "GPS BIIF-4  (PRN 27)", "group": "gps-ops", "lat": -19.9826492652071, "lon": -98.13607195347858, "alt_km": 20075.603658735035, "timestamp": "2025-12-06T16:45:42.981043+00:00", "meta": {"OBJECT_NAME": "GPS BIIF-4  (PRN 27)", "OBJECT_ID": "2013-023A", "EPOCH": "2025-12-02T17:50:49.750368", "MEAN_MOTION": 2.00565046, "ECCENTRICITY": 0.0137297, "INCLINATION": 54.6608, "RA_OF_ASC_NODE": 276.9746, "ARG_OF_PERICENTER": 48.5033, "MEAN_ANOMALY": 312.6627, "EPHEMERIS_TYPE": 0, "CLASSIFICATION_TYPE": "U", "NORAD_CAT_ID": 39166, "ELEMENT_SET_NO": 999, "REV_AT_EPOCH": 9194, "BSTAR": 0, "MEAN_MOTION_DOT": -3.8e-07, "MEAN_MOTION_DDOT": 0}, "tle": {"line1": "1 39166U 13023A   25336.74363137 -.00000038  00000+0  00000+0 0  9997", "line2": "2 39166  54.6608 276.9746 0137297  48.5033 312.6627  2.00565046 91947"}}, "geometry": {"type": "Point", "coordinates": [-98.13607195347858, -19.9826492652071]}}, {"type": "Feature", "properties": {"norad_id": 39533, "name": "GPS BIIF-5  (PRN 30)", "group": "gps-ops", "lat": -16.102699524271113, "lon": 144.87418262747215, "alt_km": 20265.517301635733, "timestamp": "2025-12-06T16:45:42.981055+00:00", "meta": {"OBJECT_NAME": "GPS BIIF-5  (PRN 30)", "OBJECT_ID": "2014-008A", "EPOCH": "2025-12-05T17:30:27.207648", "MEAN_MOTION": 2.00573953, "ECCENTRICITY": 0.00790348, "INCLINATION": 53.63, "RA_OF_ASC_NODE": 157.2106, "ARG_OF_PERICENTER": 226.4047, "MEAN_ANOMALY": 132.9556, "EPHEMERIS_TYPE": 0, "CLASSIFICATION_TYPE": "U", "NORAD_CAT_ID": 39533, "ELEMENT_SET_NO": 999, "REV_AT_EPOCH": 8580, "BSTAR": 0, "MEAN_MOTION_DOT": 6.8e-07, "MEAN_MOTION_DDOT": 0}, "tle": {"line1": "1 39533U 14008A   25339.72948157  .00000068  00000+0  00000+0 0  9993", "line2": "2 39533  53.6300 157.2106 0079034 226.4047 132.9556  2.00573953 85808"}}, "geometry": {"type": "Point", "coordinates": [144.87418262747215, -16.102699524271113]}}, {"type": "Feature", "properties": {"norad_id": 39741, "name": "GPS BIIF-6  (PRN 06)", "group": "gps-ops", "lat": 35.98914943676424, "lon": 130.35577217199938, "alt_km": 20281.462171748793, "timestamp": "2025-12-06T16:45:42.981066+00:00", "meta": {"OBJECT_NAME": "GPS BIIF-6  (PRN 06)", "OBJECT_ID": "2014-026A", "EPOCH": "2025-12-06T00:17:34.807488", "MEAN_MOTION": 2.00561679, "ECCENTRICITY": 0.00389955, "INCLINATION": 56.5861, "RA_OF_ASC_NODE": 339.0382, "ARG_OF_PERICENTER": 318.3017, "MEAN_ANOMALY": 41.4163, "EPHEMERIS_TYPE": 0, "CLASSIFICATION_TYPE": "U", "NORAD_CAT_ID": 39741, "ELEMENT_SET_NO": 999, "REV_AT_EPOCH": 8466, "BSTAR": 0, "MEAN_MOTION_DOT": -7.7e-07, "MEAN_MOTION_DDOT": 0}, "tle": {"line1": "1 39741U 14026A   25340.01220842 -.00000077  00000+0  00000+0 0  9993", "line2": "2 39741  56.5861 339.0382 0038995 318.3017  41.4163  2.00561679 84661"}}, "geometry": {"type": "Point", "coordinates": [130.35577217199938, 35.98914943676424]}}, {"type": "Feature", "properties": {"norad_id": 40105, "name": "GPS BIIF-7  (PRN 09)", "group": "gps-ops", "lat": 51.40854069521718, "lon": 156.5483698661422, "alt_km": 20116.472962675918, "timestamp": "2025-12-06T16:45:42.981077+00:00", "meta": {"OBJECT_NAME": "GPS BIIF-7  (PRN 09)", "OBJECT_ID": "2014-045A", "EPOCH": "2025-12-05T14:26:16.975968", "MEAN_MOTION": 2.00571979, "ECCENTRICITY": 0.00328896, "INCLINATION": 55.2248, "RA_OF_ASC_NODE": 96.1837, "ARG_OF_PERICENTER": 119.6741, "MEAN_ANOMALY": 240.6258, "EPHEMERIS_TYPE": 0, "CLASSIFICATION_TYPE": "U", "NORAD_CAT_ID": 40105, "ELEMENT_SET_NO": 999, "REV_AT_EPOCH": 8219, "BSTAR": 0, "MEAN_MOTION_DOT": -1.2e-07, "MEAN_MOTION_DDOT": 0}, "tle": {"line1": "1 40105U 14045A   25339.60158537 -.00000012  00000+0  00000+0 0  9993", "line2": "2 40105  55.2248  96.1837 0032889 119.6741 240.6258  2.00571979 82198"}}, "geometry": {"type": "Point", "coordinates": [156.5483698661422, 51.40854069521718]}}, {"type": "Feature", "properties": {"norad_id": 40294, "name": "GPS BIIF-8  (PRN 03)", "group": "gps-ops", "lat": 15.173547646070096, "lon": -151.79837931143388, "alt_km": 20186.306648980255, "timestamp": "2025-12-06T16:45:42.981089+00:00", "meta": {"OBJECT_NAME": "GPS BIIF-8  (PRN 03)", "OBJECT_ID": "2014-068A", "EPOCH": "2025-12-03T11:38:05.638272", "MEAN_MOTION": 2.00564094, "ECCENTRICITY": 0.00608191, "INCLINATION": 56.851, "RA_OF_ASC_NODE": 38.5042, "ARG_OF_PERICENTER": 69.3788, "MEAN_ANOMALY": 291.3251, "EPHEMERIS_TYPE": 0, "CLASSIFICATION_TYPE": "U", "NORAD_CAT_ID": 40294, "ELEMENT_SET_NO": 999, "REV_AT_EPOCH": 8128, "BSTAR": 0, "MEAN_MOTION_DOT": -6.5e-07, "MEAN_MOTION_DDOT": 0}, "tle": {"line1": "1 40294U 14068A   25337.48478748 -.00000065  00000+0  00000+0 0  9998", "line2": "2 40294  56.8510  38.5042 0060819  69.3788 291.3251  2.00564094 81285"}}, "geometry": {"type": "Point", "coordinates": [-151.79837931143388, 15.173547646070096]}}]}